SEEDS II (CO-66)        
1 32791U 08021J   26068.92109284  .00023758  00000+0  84213-3 0  9995
2 32791  97.7519  62.3611 0001448 359.2618   0.8619 15.29097235972108
STARLINK-35409          
1 66196U 25243V   26068.75235970  .00013517  00000+0  46772-3 0  9999
2 66196  53.1592 244.9387 0000994 134.1816 225.9266 15.30196191 20660
